APRIZESAT 2             
1 28366U 04025A   23326.15417366  .00000343  00000+0  12155-3 0  9991
2 28366  98.0953 171.6354 0106559 200.7074 158.9781 14.37126364 16872
SAUDICOMSAT 1           
1 28369U 04025D   23326.47982816  .00000852  00000+0  21409-3 0  9993
2 28369  98.5137 298.8930 0033505  16.3354 343.8914 14.53549517 27869
SAUDICOMSAT 2           
1 28370U 04025E   23325.88384080  .00000540  00000+0  15424-3 0  9992
2 28370  98.6057 298.6119 0056150 219.1255 140.5871 14.48356663 24250
APRIZESAT 1             
1 28372U 04025G   23326.37581017  .00000477  00000+0  13278-3 0  9992
2 28372  98.5673 298.7245 0046623 125.0956 235.4622 14.50358387 25935
NANOSAT-1               
1 28493U 04049B   23325.91742684  .00001562  00000+0  23686-3 0  9990
2 28493  98.1343  73.0394 0005353  69.9545 290.2239 14.75552393 16879
SAUDICOMSAT 7           
1 31119U 07012C   23326.38569271  .00001099  00000+0  21846-3 0  9994
2 31119  98.2500 274.6226 0057180 254.1619 105.3275 14.63179446885198
SAUDICOMSAT 6           
1 31121U 07012E   23325.85549885  .00001209  00000+0  25339-3 0  9991
2 31121  98.2846 269.0904 0075408   8.9052 351.3465 14.59842304883203
SAUDICOMSAT 5           
1 31124U 07012H   23325.82441996  .00000849  00000+0  16519-3 0  9994
2 31124  98.2202 275.2004 0049679 195.2523 164.7185 14.64979666886033
SAUDICOMSAT 3           
1 31125U 07012J   23325.82265035  .00001163  00000+0  21390-3 0  9996
2 31125  98.1870 276.1294 0042872 135.3160 225.1511 14.66970079887122
SAUDICOMSAT 4           
1 31127U 07012L   23325.83213049  .00001202  00000+0  24450-3 0  9991
2 31127  98.2708 272.5681 0065497 310.0646  49.4821 14.61651084884219
APRIZESAT 4             
1 35684U 09041D   23325.66880349  .00000905  00000+0  12273-3 0  9990
2 35684  98.2673   1.4385 0047043 113.9741 246.6406 14.80765146772318
APRIZESAT 3             
1 35686U 09041F   23326.26333010  .00002208  00000+0  22587-3 0  9994
2 35686  98.1062  69.8543 0068135 275.4764  83.8683 14.89956999776442
AISSAT 1                
1 36797U 10035C   23326.15142140  .00003142  00000+0  33465-3 0  9998
2 36797  98.2084 174.8814 0009140 267.7169  92.3001 14.89656466724317
S-NET D                 
1 43186U 18014G   23325.69806873  .00004325  00000+0  33484-3 0  9996
2 43186  97.5998 226.4207 0012247   3.9670 356.1650 15.01910490317181
S-NET B                 
1 43187U 18014H   23326.16592355  .00005003  00000+0  38647-3 0  9997
2 43187  97.6010 226.8132 0012735 358.7960   1.3231 15.01916203317254
S-NET A                 
1 43188U 18014J   23326.16574280  .00004990  00000+0  38544-3 0  9995
2 43188  97.6014 226.9104 0012668 359.1255   0.9946 15.01920017317252
S-NET C                 
1 43189U 18014K   23326.16842614  .00004820  00000+0  37235-3 0  9993
2 43189  97.6044 226.8180 0013861 352.7694   7.3328 15.01925361315802
SALSAT                  
1 46495U 20068K   23326.37954753  .00007277  00000+0  45450-3 0  9996
2 46495  97.7893 276.4079 0013292 308.1098  51.8932 15.09713928172928
